{
"type": "FeatureCollection",
"name": "sidewalk_knee",
"crs": { "type": "name", "properties": { "name": "urn:ogc:def:crs:OGC:1.3:CRS84" } },
"features": [
{ "type": "Feature", "properties": { "len_mi": 0.018374558882838021, "name": "South Main Street" }, "geometry": { "type": "LineString", "coordinates": [ [ -78.5156347, 35.9720365 ], [ -78.5157203, 35.9717793 ] ] } },
{ "type": "Feature", "properties": { "len_mi": 0.051121150767444223, "name": "South Main Street" }, "geometry": { "type": "LineString", "coordinates": [ [ -78.5156347, 35.9720365 ], [ -78.515537, 35.97233 ], [ -78.515317, 35.972729 ] ] } },
{ "type": "Feature", "properties": { "len_mi": 0.012287204337143448, "name": "South Main Street" }, "geometry": { "type": "LineString", "coordinates": [ [ -78.5181713, 35.9619085 ], [ -78.518211, 35.9617542 ], [ -78.5182177, 35.9617344 ] ] } },
{ "type": "Feature", "properties": { "len_mi": 0.010189612004079465, "name": "South Main Street" }, "geometry": { "type": "LineString", "coordinates": [ [ -78.5182662, 35.961592 ], [ -78.5182177, 35.9617344 ] ] } },
{ "type": "Feature", "properties": { "len_mi": 0.0094838876244514522, "name": "South Main Street" }, "geometry": { "type": "LineString", "coordinates": [ [ -78.5181713, 35.9619085 ], [ -78.5181366, 35.9620431 ] ] } },
{ "type": "Feature", "properties": { "len_mi": 0.0063608802680326761, "name": "South Main Street" }, "geometry": { "type": "LineString", "coordinates": [ [ -78.5175571, 35.9664708 ], [ -78.5175869, 35.9663818 ] ] } },
{ "type": "Feature", "properties": { "len_mi": 0.049451566472191802, "name": "South Main Street" }, "geometry": { "type": "LineString", "coordinates": [ [ -78.5175571, 35.9664708 ], [ -78.5175484, 35.9664972 ], [ -78.517487, 35.966683 ], [ -78.5174493, 35.9667766 ], [ -78.5172967, 35.9671557 ] ] } },
{ "type": "Feature", "properties": { "len_mi": 0.0065684034366597669, "name": "South Main Street" }, "geometry": { "type": "LineString", "coordinates": [ [ -78.5176682, 35.9661436 ], [ -78.5176388, 35.9662358 ] ] } },
{ "type": "Feature", "properties": { "len_mi": 0.072508306613890336, "name": "South Main Street" }, "geometry": { "type": "LineString", "coordinates": [ [ -78.5176682, 35.9661436 ], [ -78.5176728, 35.9661254 ], [ -78.5177462, 35.9658324 ], [ -78.5177565, 35.9657911 ], [ -78.5177937, 35.9655871 ], [ -78.517859, 35.965229 ], [ -78.5178705, 35.9651059 ] ] } },
{ "type": "Feature", "properties": { "len_mi": 0.045114797778576451, "name": "South Main Street" }, "geometry": { "type": "LineString", "coordinates": [ [ -78.51257, 35.9768719 ], [ -78.5125923, 35.9767924 ], [ -78.51266, 35.976558 ], [ -78.512809, 35.976249 ] ] } },
{ "type": "Feature", "properties": { "len_mi": 0.066700946951974094, "name": "South Main Street" }, "geometry": { "type": "LineString", "coordinates": [ [ -78.51257, 35.9768719 ], [ -78.5125419, 35.976972 ], [ -78.5124008, 35.9775579 ], [ -78.5123325, 35.9778196 ] ] } },
{ "type": "Feature", "properties": { "len_mi": 0.059013940902737087, "name": "South Main Street" }, "geometry": { "type": "LineString", "coordinates": [ [ -78.5142016, 35.9743063 ], [ -78.5147459, 35.9735738 ] ] } },
{ "type": "Feature", "properties": { "len_mi": 0.070548792722911424, "name": "South Main Street" }, "geometry": { "type": "LineString", "coordinates": [ [ -78.5142016, 35.9743063 ], [ -78.514106, 35.974435 ], [ -78.513553, 35.975183 ] ] } },
{ "type": "Feature", "properties": { "len_mi": 0.044160394760128382, "name": "South Main Street" }, "geometry": { "type": "LineString", "coordinates": [ [ -78.5121736, 35.9784468 ], [ -78.5123325, 35.9778196 ] ] } },
{ "type": "Feature", "properties": { "len_mi": 0.0062376915975018076, "name": "South Main Street" }, "geometry": { "type": "LineString", "coordinates": [ [ -78.5121736, 35.9784468 ], [ -78.5121512, 35.9785354 ] ] } },
{ "type": "Feature", "properties": { "len_mi": 0.028719746064639048, "name": "South Main Street" }, "geometry": { "type": "LineString", "coordinates": [ [ -78.51714, 35.9675522 ], [ -78.5172967, 35.9671557 ] ] } },
{ "type": "Feature", "properties": { "len_mi": 0.032067859917583631, "name": "South Main Street" }, "geometry": { "type": "LineString", "coordinates": [ [ -78.51714, 35.9675522 ], [ -78.5169571, 35.9679928 ] ] } },
{ "type": "Feature", "properties": { "len_mi": 0.028238845432836543, "name": "South Main Street" }, "geometry": { "type": "LineString", "coordinates": [ [ -78.5128848, 35.9761419 ], [ -78.5131361, 35.975787 ] ] } },
{ "type": "Feature", "properties": { "len_mi": 0.0085207673976676682, "name": "South Main Street" }, "geometry": { "type": "LineString", "coordinates": [ [ -78.5128848, 35.9761419 ], [ -78.512809, 35.976249 ] ] } },
{ "type": "Feature", "properties": { "len_mi": 0.0091565008222763023, "name": "South Main Street" }, "geometry": { "type": "LineString", "coordinates": [ [ -78.5179817, 35.9639103 ], [ -78.517994, 35.9637779 ] ] } },
{ "type": "Feature", "properties": { "len_mi": 0.032580416062078156, "name": "South Main Street" }, "geometry": { "type": "LineString", "coordinates": [ [ -78.5179817, 35.9639103 ], [ -78.5179379, 35.9643814 ] ] } },
{ "type": "Feature", "properties": { "len_mi": 0.047186896136390502, "name": "South Main Street" }, "geometry": { "type": "LineString", "coordinates": [ [ -78.5178744, 35.9650637 ], [ -78.5179379, 35.9643814 ] ] } },
{ "type": "Feature", "properties": { "len_mi": 0.02297672734763484, "name": "South Main Street" }, "geometry": { "type": "LineString", "coordinates": [ [ -78.5132056, 35.9756888 ], [ -78.51341, 35.9754 ] ] } },
{ "type": "Feature", "properties": { "len_mi": 0.0078126732718420272, "name": "South Main Street" }, "geometry": { "type": "LineString", "coordinates": [ [ -78.5132056, 35.9756888 ], [ -78.5131361, 35.975787 ] ] } },
{ "type": "Feature", "properties": { "len_mi": 0.016586023554836637, "name": "South Main Street" }, "geometry": { "type": "LineString", "coordinates": [ [ -78.5183216, 35.9614295 ], [ -78.5184315, 35.9612062 ] ] } },
{ "type": "Feature", "properties": { "len_mi": 0.012857006761924654, "name": "South Main Street" }, "geometry": { "type": "LineString", "coordinates": [ [ -78.5121512, 35.9785354 ], [ -78.5120721, 35.9787104 ] ] } },
{ "type": "Feature", "properties": { "len_mi": 0.0081707350866975694, "name": "South Main Street" }, "geometry": { "type": "LineString", "coordinates": [ [ -78.5120721, 35.9787104 ], [ -78.5120293, 35.9787793 ], [ -78.5120053, 35.9788157 ] ] } },
{ "type": "Feature", "properties": { "len_mi": 0.019023101410503732, "name": "South Main Street" }, "geometry": { "type": "LineString", "coordinates": [ [ -78.5180676, 35.9628081 ], [ -78.518087, 35.9625327 ] ] } },
{ "type": "Feature", "properties": { "len_mi": 0.039722024819498908, "name": "South Main Street" }, "geometry": { "type": "LineString", "coordinates": [ [ -78.5180258, 35.9633831 ], [ -78.5180676, 35.9628081 ] ] } },
{ "type": "Feature", "properties": { "len_mi": 0.0116287043626053, "name": "South Main Street" }, "geometry": { "type": "LineString", "coordinates": [ [ -78.5183216, 35.9614295 ], [ -78.5182662, 35.961592 ] ] } },
{ "type": "Feature", "properties": { "len_mi": 0.014864118477330726, "name": "South Main Street" }, "geometry": { "type": "LineString", "coordinates": [ [ -78.5180127, 35.9635629 ], [ -78.518008, 35.963627 ], [ -78.517994, 35.9637779 ] ] } },
{ "type": "Feature", "properties": { "len_mi": 0.035049067607644209, "name": "South Main Street" }, "geometry": { "type": "LineString", "coordinates": [ [ -78.5167961, 35.9684839 ], [ -78.5169571, 35.9679928 ] ] } },
{ "type": "Feature", "properties": { "len_mi": 0.044209159835405958, "name": "South Main Street" }, "geometry": { "type": "LineString", "coordinates": [ [ -78.5167961, 35.9684839 ], [ -78.5165816, 35.9691008 ] ] } },
{ "type": "Feature", "properties": { "len_mi": 0.012421002218433685, "name": "South Main Street" }, "geometry": { "type": "LineString", "coordinates": [ [ -78.5180258, 35.9633831 ], [ -78.5180127, 35.9635629 ] ] } },
{ "type": "Feature", "properties": { "len_mi": 0.0029183763201905792, "name": "South Main Street" }, "geometry": { "type": "LineString", "coordinates": [ [ -78.5178744, 35.9650637 ], [ -78.5178705, 35.9651059 ] ] } },
{ "type": "Feature", "properties": { "len_mi": 0.0065771931693543164, "name": null }, "geometry": { "type": "LineString", "coordinates": [ [ -78.5120053, 35.9788157 ], [ -78.5119774, 35.9788227 ], [ -78.5119519, 35.9788344 ], [ -78.5119301, 35.9788505 ], [ -78.5119131, 35.97887 ] ] } },
{ "type": "Feature", "properties": { "len_mi": 0.027272665413772119, "name": "South Main Street" }, "geometry": { "type": "LineString", "coordinates": [ [ -78.516458, 35.9694833 ], [ -78.5165816, 35.9691008 ] ] } },
{ "type": "Feature", "properties": { "len_mi": 0.033877842953404888, "name": "South Main Street" }, "geometry": { "type": "LineString", "coordinates": [ [ -78.518087, 35.9625327 ], [ -78.5181366, 35.9620431 ] ] } },
{ "type": "Feature", "properties": { "len_mi": 0.01048035883619676, "name": "South Main Street" }, "geometry": { "type": "LineString", "coordinates": [ [ -78.5175869, 35.9663818 ], [ -78.5176388, 35.9662358 ] ] } },
{ "type": "Feature", "properties": { "len_mi": 0.14605284924489084, "name": "South Main Street" }, "geometry": { "type": "LineString", "coordinates": [ [ -78.516458, 35.9694833 ], [ -78.5157961, 35.9715317 ] ] } },
{ "type": "Feature", "properties": { "len_mi": 0.017595667337323474, "name": "South Main Street" }, "geometry": { "type": "LineString", "coordinates": [ [ -78.5157203, 35.9717793 ], [ -78.5157961, 35.9715317 ] ] } },
{ "type": "Feature", "properties": { "len_mi": 0.066560917096908229, "name": "South Main Street" }, "geometry": { "type": "LineString", "coordinates": [ [ -78.5147459, 35.9735738 ], [ -78.515161, 35.973007 ], [ -78.515317, 35.972729 ] ] } },
{ "type": "Feature", "properties": { "len_mi": 0.016976345785087842, "name": "South Main Street" }, "geometry": { "type": "LineString", "coordinates": [ [ -78.51341, 35.9754 ], [ -78.513553, 35.975183 ] ] } },
{ "type": "Feature", "properties": { "len_mi": 0.0092461998437166921, "name": "South Main Street" }, "geometry": { "type": "LineString", "coordinates": [ [ -78.5260752, 35.9546648 ], [ -78.5261666, 35.9545532 ] ] } },
{ "type": "Feature", "properties": { "len_mi": 0.017022699507027603, "name": "South Main Street" }, "geometry": { "type": "LineString", "coordinates": [ [ -78.525907, 35.9548703 ], [ -78.5260752, 35.9546648 ] ] } },
{ "type": "Feature", "properties": { "len_mi": 0.017232132442189216, "name": "South Main Street" }, "geometry": { "type": "LineString", "coordinates": [ [ -78.525907, 35.9548703 ], [ -78.5258898, 35.9548913 ], [ -78.5257311, 35.9550752 ] ] } },
{ "type": "Feature", "properties": { "len_mi": 0.026916423085770032, "name": "South Main Street" }, "geometry": { "type": "LineString", "coordinates": [ [ -78.5252049, 35.9556934 ], [ -78.525478, 35.9553724 ] ] } },
{ "type": "Feature", "properties": { "len_mi": 0.0059444426194269016, "name": "South Main Street" }, "geometry": { "type": "LineString", "coordinates": [ [ -78.5252049, 35.9556934 ], [ -78.5251446, 35.9557643 ] ] } },
{ "type": "Feature", "properties": { "len_mi": 0.093683447797583877, "name": "Rogers Road" }, "geometry": { "type": "LineString", "coordinates": [ [ -78.5242382, 35.9523958 ], [ -78.5239199, 35.9522571 ], [ -78.5227556, 35.9517695 ] ] } },
{ "type": "Feature", "properties": { "len_mi": 0.069508277985740455, "name": "Rogers Road" }, "geometry": { "type": "LineString", "coordinates": [ [ -78.5267199, 35.9534989 ], [ -78.5256309, 35.9530173 ] ] } },
{ "type": "Feature", "properties": { "len_mi": 0.081460082900322014, "name": "Rogers Road" }, "geometry": { "type": "LineString", "coordinates": [ [ -78.5256309, 35.9530173 ], [ -78.5249412, 35.9527035 ], [ -78.524358, 35.952448 ] ] } },
{ "type": "Feature", "properties": { "len_mi": 0.065614542080609461, "name": "South Main Street" }, "geometry": { "type": "LineString", "coordinates": [ [ -78.5270094, 35.9534671 ], [ -78.5276912, 35.9526938 ] ] } },
{ "type": "Feature", "properties": { "len_mi": 0.088166253567154879, "name": "South Main Street" }, "geometry": { "type": "LineString", "coordinates": [ [ -78.5276912, 35.9526938 ], [ -78.5285883, 35.9516438 ] ] } },
{ "type": "Feature", "properties": { "len_mi": 0.039408670307697839, "name": "South Main Street" }, "geometry": { "type": "LineString", "coordinates": [ [ -78.5289392, 35.9512039 ], [ -78.529125, 35.950971 ], [ -78.529353, 35.950743 ] ] } },
{ "type": "Feature", "properties": { "len_mi": 0.036157894615364117, "name": "South Main Street" }, "geometry": { "type": "LineString", "coordinates": [ [ -78.5289392, 35.9512039 ], [ -78.5285883, 35.9516438 ] ] } },
{ "type": "Feature", "properties": { "len_mi": 0.012090220346561108, "name": "Rogers Road" }, "geometry": { "type": "LineString", "coordinates": [ [ -78.5267199, 35.9534989 ], [ -78.5269093, 35.9535827 ] ] } },
{ "type": "Feature", "properties": { "len_mi": 0.0029857974431812574, "name": "South Main Street" }, "geometry": { "type": "LineString", "coordinates": [ [ -78.5268847, 35.9536211 ], [ -78.5269093, 35.9535827 ] ] } },
{ "type": "Feature", "properties": { "len_mi": 0.00813102429776889, "name": "South Main Street" }, "geometry": { "type": "LineString", "coordinates": [ [ -78.5269928, 35.9534863 ], [ -78.5269093, 35.9535827 ] ] } },
{ "type": "Feature", "properties": { "len_mi": 0.045660424833164355, "name": "South Main Street" }, "geometry": { "type": "LineString", "coordinates": [ [ -78.5266067, 35.9539961 ], [ -78.5261666, 35.9545532 ] ] } },
{ "type": "Feature", "properties": { "len_mi": 0.022530809247860828, "name": "South Main Street" }, "geometry": { "type": "LineString", "coordinates": [ [ -78.5251446, 35.9557643 ], [ -78.524916, 35.956033 ] ] } },
{ "type": "Feature", "properties": { "len_mi": 0.026629031788979744, "name": "South Main Street" }, "geometry": { "type": "LineString", "coordinates": [ [ -78.5266067, 35.9539961 ], [ -78.5268065, 35.9537431 ], [ -78.5268551, 35.9536673 ] ] } },
{ "type": "Feature", "properties": { "len_mi": 0.0076210497898906038, "name": "Rogers Road" }, "geometry": { "type": "LineString", "coordinates": [ [ -78.5242382, 35.9523958 ], [ -78.524358, 35.952448 ] ] } },
{ "type": "Feature", "properties": { "len_mi": 0.024928747824830514, "name": "South Main Street" }, "geometry": { "type": "LineString", "coordinates": [ [ -78.525478, 35.9553724 ], [ -78.525708, 35.955102 ], [ -78.5257311, 35.9550752 ] ] } },
{ "type": "Feature", "properties": { "len_mi": 0.0035923681524593159, "name": "South Main Street" }, "geometry": { "type": "LineString", "coordinates": [ [ -78.5268551, 35.9536673 ], [ -78.5268847, 35.9536211 ] ] } },
{ "type": "Feature", "properties": { "len_mi": 0.0016184667460604285, "name": "South Main Street" }, "geometry": { "type": "LineString", "coordinates": [ [ -78.5270094, 35.9534671 ], [ -78.5269928, 35.9534863 ] ] } },
{ "type": "Feature", "properties": { "len_mi": 0.046559923568689564, "name": "Rogers Road" }, "geometry": { "type": "LineString", "coordinates": [ [ -78.5068357, 35.9475867 ], [ -78.5070425, 35.9477723 ], [ -78.5073923, 35.9480877 ] ] } },
{ "type": "Feature", "properties": { "len_mi": 0.11206856508143412, "name": "Rogers Road" }, "geometry": { "type": "LineString", "coordinates": [ [ -78.5055361, 35.9463524 ], [ -78.5058799, 35.9466934 ], [ -78.5059899, 35.9468025 ], [ -78.5064003, 35.9471825 ], [ -78.5064619, 35.9472404 ], [ -78.5068357, 35.9475867 ] ] } },
{ "type": "Feature", "properties": { "len_mi": 0.016454095874774172, "name": "Forestville Road" }, "geometry": { "type": "LineString", "coordinates": [ [ -78.513260346098946, 35.950657974420416 ], [ -78.5132645, 35.9504194 ] ] } },
{ "type": "Feature", "properties": { "len_mi": 0.0098895922419627493, "name": "Forestville Road" }, "geometry": { "type": "LineString", "coordinates": [ [ -78.5132645, 35.9504194 ], [ -78.5132663, 35.950276 ] ] } },
{ "type": "Feature", "properties": { "len_mi": 0.060493556582180523, "name": "Rogers Road" }, "geometry": { "type": "LineString", "coordinates": [ [ -78.5121933, 35.9503671 ], [ -78.5122153, 35.9503657 ], [ -78.5132663, 35.950276 ] ] } },
{ "type": "Feature", "properties": { "len_mi": 0.076410696406839826, "name": "Rogers Road" }, "geometry": { "type": "LineString", "coordinates": [ [ -78.514622, 35.9501638 ], [ -78.5141158, 35.9502064 ], [ -78.5139489, 35.9502204 ], [ -78.5132663, 35.950276 ] ] } },
{ "type": "Feature", "properties": { "len_mi": 0.008293627873500466, "name": "Forestville Road" }, "geometry": { "type": "LineString", "coordinates": [ [ -78.507092, 35.9436198 ], [ -78.5071097, 35.9435004 ] ] } },
{ "type": "Feature", "properties": { "len_mi": 0.13265744879310143, "name": "Rogers Road" }, "geometry": { "type": "LineString", "coordinates": [ [ -78.5089201, 35.9495559 ], [ -78.5086995, 35.9493521 ], [ -78.5085651, 35.9492245 ], [ -78.508427, 35.9490857 ], [ -78.5082438, 35.9489014 ], [ -78.5082294, 35.9488889 ], [ -78.507999, 35.948659 ], [ -78.5077745, 35.9484373 ], [ -78.507721, 35.9483884 ], [ -78.5073923, 35.9480877 ] ] } },
{ "type": "Feature", "properties": { "len_mi": 0.018093057591966791, "name": "Rogers Road" }, "geometry": { "type": "LineString", "coordinates": [ [ -78.5091431, 35.9497452 ], [ -78.509129, 35.9497349 ], [ -78.5090872, 35.9497045 ], [ -78.5089201, 35.9495559 ] ] } },
{ "type": "Feature", "properties": { "len_mi": 0.042176373467172047, "name": "Forestville Road" }, "geometry": { "type": "LineString", "coordinates": [ [ -78.5061557, 35.9457185 ], [ -78.5058363, 35.9459643 ], [ -78.5055946, 35.9461252 ] ] } },
{ "type": "Feature", "properties": { "len_mi": 0.012492078469498628, "name": "Forestville Road" }, "geometry": { "type": "LineString", "coordinates": [ [ -78.5055946, 35.9461252 ], [ -78.5054314, 35.9462485 ] ] } },
{ "type": "Feature", "properties": { "len_mi": 0.0092633238818230317, "name": "Rogers Road" }, "geometry": { "type": "LineString", "coordinates": [ [ -78.5055361, 35.9463524 ], [ -78.5054314, 35.9462485 ] ] } },
{ "type": "Feature", "properties": { "len_mi": 0.031847421509589927, "name": "Forestville Road" }, "geometry": { "type": "LineString", "coordinates": [ [ -78.5065737, 35.9452691 ], [ -78.5065901, 35.945241 ], [ -78.50683, 35.944857 ] ] } },
{ "type": "Feature", "properties": { "len_mi": 0.08681243853240149, "name": "Forestville Road" }, "geometry": { "type": "LineString", "coordinates": [ [ -78.507092, 35.9436198 ], [ -78.5070777, 35.9438422 ], [ -78.5070199, 35.9442023 ], [ -78.5069204, 35.9445904 ], [ -78.50683, 35.944857 ] ] } },
{ "type": "Feature", "properties": { "len_mi": 0.027657208455657448, "name": "Rogers Road" }, "geometry": { "type": "LineString", "coordinates": [ [ -78.5091431, 35.9497452 ], [ -78.5093066, 35.9498638 ], [ -78.5095179, 35.9500058 ] ] } },
{ "type": "Feature", "properties": { "len_mi": 0.085347314203084196, "name": "Rogers Road" }, "geometry": { "type": "LineString", "coordinates": [ [ -78.5106786, 35.9503601 ], [ -78.5109252, 35.950394 ], [ -78.5112182, 35.9504189 ], [ -78.5115019, 35.9504113 ], [ -78.5121933, 35.9503671 ] ] } },
{ "type": "Feature", "properties": { "len_mi": 0.0096942624076014946, "name": "Rogers Road" }, "geometry": { "type": "LineString", "coordinates": [ [ -78.5098452, 35.9501363 ], [ -78.5096862, 35.9500811 ] ] } },
{ "type": "Feature", "properties": { "len_mi": 0.049357309700154471, "name": "Rogers Road" }, "geometry": { "type": "LineString", "coordinates": [ [ -78.5098452, 35.9501363 ], [ -78.5100325, 35.9502013 ], [ -78.5101153, 35.9502268 ], [ -78.5103271, 35.9502919 ], [ -78.5105929, 35.9503483 ], [ -78.5106786, 35.9503601 ] ] } },
{ "type": "Feature", "properties": { "len_mi": 0.020014756124424129, "name": "Forestville Road" }, "geometry": { "type": "LineString", "coordinates": [ [ -78.5061557, 35.9457185 ], [ -78.5062604, 35.9456212 ], [ -78.5063815, 35.9454939 ] ] } },
{ "type": "Feature", "properties": { "len_mi": 0.010771437242621593, "name": "Rogers Road" }, "geometry": { "type": "LineString", "coordinates": [ [ -78.5095179, 35.9500058 ], [ -78.5096862, 35.9500811 ] ] } },
{ "type": "Feature", "properties": { "len_mi": 0.018881017253777152, "name": "Forestville Road" }, "geometry": { "type": "LineString", "coordinates": [ [ -78.5065737, 35.9452691 ], [ -78.5063815, 35.9454939 ] ] } }
]
}
