{
"type": "FeatureCollection",
"name": "sidewalk_parity",
"crs": { "type": "name", "properties": { "name": "urn:ogc:def:crs:OGC:1.3:CRS84" } },
"features": [
{ "type": "Feature", "properties": { "len_mi": 0.004853729311900536, "name": "South Main Street" }, "geometry": { "type": "LineString", "coordinates": [ [ -78.5315393, 35.94953 ], [ -78.5316139, 35.9494943 ] ] } },
{ "type": "Feature", "properties": { "len_mi": 0.012645496205313746, "name": "South Main Street" }, "geometry": { "type": "LineString", "coordinates": [ [ -78.5318079, 35.9494008 ], [ -78.531675, 35.949465 ], [ -78.5316139, 35.9494943 ] ] } },
{ "type": "Feature", "properties": { "len_mi": 0.012459269373620822, "name": "South Main Street" }, "geometry": { "type": "LineString", "coordinates": [ [ -78.532951, 35.948857 ], [ -78.53314, 35.948762 ] ] } },
{ "type": "Feature", "properties": { "len_mi": 0.053992450309162318, "name": "South Main Street" }, "geometry": { "type": "LineString", "coordinates": [ [ -78.5339854, 35.9483873 ], [ -78.5339576, 35.9483986 ], [ -78.5338343, 35.9484523 ], [ -78.5335749, 35.9485651 ], [ -78.53314, 35.948762 ] ] } },
{ "type": "Feature", "properties": { "len_mi": 0.020452670876166423, "name": "South Main Street" }, "geometry": { "type": "LineString", "coordinates": [ [ -78.5318079, 35.9494008 ], [ -78.5321214, 35.9492492 ] ] } },
{ "type": "Feature", "properties": { "len_mi": 0.010605907469653069, "name": "South Main Street" }, "geometry": { "type": "LineString", "coordinates": [ [ -78.5304373, 35.9500403 ], [ -78.5306025, 35.9499654 ] ] } },
{ "type": "Feature", "properties": { "len_mi": 0.032607683011127299, "name": "South Main Street" }, "geometry": { "type": "LineString", "coordinates": [ [ -78.5306025, 35.9499654 ], [ -78.5311108, 35.9497357 ] ] } },
{ "type": "Feature", "properties": { "len_mi": 0.018767741881913928, "name": "South Main Street" }, "geometry": { "type": "LineString", "coordinates": [ [ -78.5304373, 35.9500403 ], [ -78.530204, 35.950146 ], [ -78.530147, 35.9501756 ] ] } },
{ "type": "Feature", "properties": { "len_mi": 0.020483293053373774, "name": "South Main Street" }, "geometry": { "type": "LineString", "coordinates": [ [ -78.530147, 35.9501756 ], [ -78.53005, 35.950226 ], [ -78.529853, 35.9503514 ] ] } },
{ "type": "Feature", "properties": { "len_mi": 0.019727393545775015, "name": "South Main Street" }, "geometry": { "type": "LineString", "coordinates": [ [ -78.5321214, 35.9492492 ], [ -78.5324238, 35.949103 ] ] } },
{ "type": "Feature", "properties": { "len_mi": 0.0061030064937878572, "name": "South Main Street" }, "geometry": { "type": "LineString", "coordinates": [ [ -78.5325161, 35.9490561 ], [ -78.5324238, 35.949103 ] ] } },
{ "type": "Feature", "properties": { "len_mi": 0.027985753617407402, "name": "South Main Street" }, "geometry": { "type": "LineString", "coordinates": [ [ -78.5325161, 35.9490561 ], [ -78.5328057, 35.9489235 ], [ -78.532951, 35.948857 ] ] } },
{ "type": "Feature", "properties": { "len_mi": 0.027902061333250818, "name": "South Main Street" }, "geometry": { "type": "LineString", "coordinates": [ [ -78.5315393, 35.94953 ], [ -78.5311108, 35.9497357 ] ] } },
{ "type": "Feature", "properties": { "len_mi": 0.013272006723829822, "name": "South Main Street" }, "geometry": { "type": "LineString", "coordinates": [ [ -78.5339854, 35.9483873 ], [ -78.534184, 35.9482826 ] ] } },
{ "type": "Feature", "properties": { "len_mi": 0.0719773088842839, "name": "Wait Avenue" }, "geometry": { "type": "LineString", "coordinates": [ [ -78.495826, 35.9730085 ], [ -78.496885, 35.9735987 ] ] } },
{ "type": "Feature", "properties": { "len_mi": 0.018287150340324264, "name": "Wait Avenue" }, "geometry": { "type": "LineString", "coordinates": [ [ -78.495826, 35.9730085 ], [ -78.4955569, 35.9728586 ] ] } },
{ "type": "Feature", "properties": { "len_mi": 0.049740743417862228, "name": "Wait Avenue" }, "geometry": { "type": "LineString", "coordinates": [ [ -78.4948348, 35.9724396 ], [ -78.4949906, 35.9725327 ], [ -78.4952496, 35.9726874 ], [ -78.4955569, 35.9728586 ] ] } },
{ "type": "Feature", "properties": { "len_mi": 0.049090647231115302, "name": "Wait Avenue" }, "geometry": { "type": "LineString", "coordinates": [ [ -78.4942353, 35.972108 ], [ -78.4935105, 35.9717085 ] ] } },
{ "type": "Feature", "properties": { "len_mi": 0.040658643173028856, "name": "Wait Avenue" }, "geometry": { "type": "LineString", "coordinates": [ [ -78.4948348, 35.9724396 ], [ -78.494697, 35.9723573 ], [ -78.4944295, 35.9722154 ], [ -78.4942353, 35.972108 ] ] } },
{ "type": "Feature", "properties": { "len_mi": 0.0020901172434003171, "name": "Wait Avenue" }, "geometry": { "type": "LineString", "coordinates": [ [ -78.4969157, 35.9736159 ], [ -78.496885, 35.9735987 ] ] } },
{ "type": "Feature", "properties": { "len_mi": 0.017692503208421292, "name": "Wait Avenue" }, "geometry": { "type": "LineString", "coordinates": [ [ -78.4989358, 35.9747333 ], [ -78.4991971, 35.9748772 ] ] } },
{ "type": "Feature", "properties": { "len_mi": 0.026700891858371243, "name": "Wait Avenue" }, "geometry": { "type": "LineString", "coordinates": [ [ -78.4985419, 35.9745156 ], [ -78.4989358, 35.9747333 ] ] } },
{ "type": "Feature", "properties": { "len_mi": 0.0034304454959985633, "name": "South Allen Road" }, "geometry": { "type": "LineString", "coordinates": [ [ -78.501316, 35.9759787 ], [ -78.5013296, 35.9759302 ] ] } },
{ "type": "Feature", "properties": { "len_mi": 0.14110120749236016, "name": "Wait Avenue" }, "geometry": { "type": "LineString", "coordinates": [ [ -78.5014263, 35.9760191 ], [ -78.5037211, 35.97686 ] ] } },
{ "type": "Feature", "properties": { "len_mi": 0.0067815812419827507, "name": "Wait Avenue" }, "geometry": { "type": "LineString", "coordinates": [ [ -78.5014263, 35.9760191 ], [ -78.501316, 35.9759787 ] ] } },
{ "type": "Feature", "properties": { "len_mi": 0.067999910885344642, "name": "Wait Avenue" }, "geometry": { "type": "LineString", "coordinates": [ [ -78.5048316, 35.9772569 ], [ -78.5045159, 35.9771441 ], [ -78.5037211, 35.97686 ] ] } },
{ "type": "Feature", "properties": { "len_mi": 0.12156279732295253, "name": "Wait Avenue" }, "geometry": { "type": "LineString", "coordinates": [ [ -78.501316, 35.9759787 ], [ -78.5009412, 35.9758276 ], [ -78.5005039, 35.9756026 ], [ -78.5000765, 35.9753644 ], [ -78.49949, 35.9750327 ] ] } },
{ "type": "Feature", "properties": { "len_mi": 0.022672799167778833, "name": "Wait Avenue" }, "geometry": { "type": "LineString", "coordinates": [ [ -78.4982083, 35.9743297 ], [ -78.4985419, 35.9745156 ] ] } },
{ "type": "Feature", "properties": { "len_mi": 0.037525024507969684, "name": "Wait Avenue" }, "geometry": { "type": "LineString", "coordinates": [ [ -78.5048316, 35.9772569 ], [ -78.504885, 35.977276 ], [ -78.505041, 35.977332 ], [ -78.5054391, 35.9774854 ] ] } },
{ "type": "Feature", "properties": { "len_mi": 0.05795588464311726, "name": "Wait Avenue" }, "geometry": { "type": "LineString", "coordinates": [ [ -78.4969157, 35.9736159 ], [ -78.4973575, 35.973863 ], [ -78.4977701, 35.9740891 ] ] } },
{ "type": "Feature", "properties": { "len_mi": 0.029642743501430101, "name": "Wait Avenue" }, "geometry": { "type": "LineString", "coordinates": [ [ -78.4982083, 35.9743297 ], [ -78.4981687, 35.9743076 ], [ -78.4977701, 35.9740891 ] ] } },
{ "type": "Feature", "properties": { "len_mi": 0.019610454665184039, "name": "Wait Avenue" }, "geometry": { "type": "LineString", "coordinates": [ [ -78.49949, 35.9750327 ], [ -78.4991971, 35.9748772 ] ] } },
{ "type": "Feature", "properties": { "len_mi": 0.0055594063501226507, "name": "North Main Street" }, "geometry": { "type": "LineString", "coordinates": [ [ -78.5104538, 35.9814729 ], [ -78.5104426, 35.9813928 ] ] } },
{ "type": "Feature", "properties": { "len_mi": 0.0073741525865660866, "name": "North Avenue" }, "geometry": { "type": "LineString", "coordinates": [ [ -78.5105585, 35.9814434 ], [ -78.5104426, 35.9813928 ] ] } },
{ "type": "Feature", "properties": { "len_mi": 0.08780564460650872, "name": "North Main Street" }, "geometry": { "type": "LineString", "coordinates": [ [ -78.5078537, 35.9854087 ], [ -78.5083883, 35.9845995 ], [ -78.5085988, 35.9842887 ] ] } },
{ "type": "Feature", "properties": { "len_mi": 0.095974071814756479, "name": "North Main Street" }, "geometry": { "type": "LineString", "coordinates": [ [ -78.5070512, 35.9866381 ], [ -78.5070664, 35.9866151 ], [ -78.5078537, 35.9854087 ] ] } },
{ "type": "Feature", "properties": { "len_mi": 0.1126578112197414, "name": "North Main Street" }, "geometry": { "type": "LineString", "coordinates": [ [ -78.5085988, 35.9842887 ], [ -78.509266, 35.9832792 ], [ -78.5095514, 35.9828502 ] ] } },
{ "type": "Feature", "properties": { "len_mi": 0.10761438135800373, "name": "North Main Street" }, "geometry": { "type": "LineString", "coordinates": [ [ -78.5095514, 35.9828502 ], [ -78.5102623, 35.9817786 ], [ -78.5104538, 35.9814729 ] ] } },
{ "type": "Feature", "properties": { "len_mi": 0.02766644991150018, "name": "North Main Street" }, "geometry": { "type": "LineString", "coordinates": [ [ -78.5068194, 35.9869923 ], [ -78.507014, 35.9866947 ], [ -78.5070512, 35.9866381 ] ] } },
{ "type": "Feature", "properties": { "len_mi": 0.037336715227139064, "name": "North Main Street" }, "geometry": { "type": "LineString", "coordinates": [ [ -78.5065068, 35.9874704 ], [ -78.5068194, 35.9869923 ] ] } },
{ "type": "Feature", "properties": { "len_mi": 0.20708310626724649, "name": "Stadium Drive" }, "geometry": { "type": "LineString", "coordinates": [ [ -78.5192042, 35.9844734 ], [ -78.519074, 35.9843818 ], [ -78.5189316, 35.9843001 ], [ -78.5187336, 35.9842201 ], [ -78.5185112, 35.98414 ], [ -78.5181558, 35.9840326 ], [ -78.5178899, 35.9839516 ], [ -78.5177053, 35.9838902 ], [ -78.5163568, 35.9834537 ], [ -78.5158266, 35.9832843 ] ] } },
{ "type": "Feature", "properties": { "len_mi": 0.0065785557701666785, "name": "Stadium Drive" }, "geometry": { "type": "LineString", "coordinates": [ [ -78.5192042, 35.9844734 ], [ -78.5192919, 35.9845368 ] ] } },
{ "type": "Feature", "properties": { "len_mi": 0.015027733390540041, "name": "Stadium Drive" }, "geometry": { "type": "LineString", "coordinates": [ [ -78.5225476, 35.9875915 ], [ -78.522516, 35.987572 ], [ -78.5223473, 35.9874468 ] ] } },
{ "type": "Feature", "properties": { "len_mi": 0.064059902045252581, "name": "Stadium Drive" }, "geometry": { "type": "LineString", "coordinates": [ [ -78.5223473, 35.9874468 ], [ -78.522297, 35.98741 ], [ -78.522033, 35.987214 ], [ -78.521667, 35.986875 ], [ -78.5215642, 35.9867724 ] ] } },
{ "type": "Feature", "properties": { "len_mi": 0.04512356653189728, "name": "Stadium Drive" }, "geometry": { "type": "LineString", "coordinates": [ [ -78.5225476, 35.9875915 ], [ -78.522916, 35.987819 ], [ -78.523189, 35.987987 ] ] } },
{ "type": "Feature", "properties": { "len_mi": 0.046972532350271004, "name": "Stadium Drive" }, "geometry": { "type": "LineString", "coordinates": [ [ -78.5206619, 35.9858513 ], [ -78.520937, 35.986146 ], [ -78.5211787, 35.9863874 ] ] } },
{ "type": "Feature", "properties": { "len_mi": 0.006590851269258082, "name": "Stadium Drive" }, "geometry": { "type": "LineString", "coordinates": [ [ -78.5212546, 35.9864604 ], [ -78.5211787, 35.9863874 ] ] } },
{ "type": "Feature", "properties": { "len_mi": 0.017652613372925566, "name": "Stadium Drive" }, "geometry": { "type": "LineString", "coordinates": [ [ -78.5134142, 35.9826007 ], [ -78.5133781, 35.9825615 ], [ -78.5131445, 35.982479 ] ] } },
{ "type": "Feature", "properties": { "len_mi": 0.0083787254854181988, "name": "Stadium Drive" }, "geometry": { "type": "LineString", "coordinates": [ [ -78.5131445, 35.982479 ], [ -78.5131023, 35.9824641 ], [ -78.5130377, 35.9823984 ] ] } },
{ "type": "Feature", "properties": { "len_mi": 0.08632214418068869, "name": "Stadium Drive" }, "geometry": { "type": "LineString", "coordinates": [ [ -78.5134142, 35.9826007 ], [ -78.5139263, 35.982681 ], [ -78.514365, 35.9827391 ], [ -78.5146957, 35.9828092 ], [ -78.514909, 35.982884 ] ] } },
{ "type": "Feature", "properties": { "len_mi": 0.068835110147011935, "name": "Stadium Drive" }, "geometry": { "type": "LineString", "coordinates": [ [ -78.5247072, 35.9889274 ], [ -78.524596, 35.988856 ], [ -78.524353, 35.988704 ], [ -78.524197, 35.988607 ], [ -78.524033, 35.988504 ], [ -78.5237359, 35.9883165 ] ] } },
{ "type": "Feature", "properties": { "len_mi": 0.054448278042267588, "name": "Stadium Drive" }, "geometry": { "type": "LineString", "coordinates": [ [ -78.514971, 35.9829126 ], [ -78.5151518, 35.9829993 ], [ -78.5154103, 35.9831232 ], [ -78.5155271, 35.9831755 ], [ -78.5158266, 35.9832843 ] ] } },
{ "type": "Feature", "properties": { "len_mi": 0.043085681776434556, "name": "Stadium Drive" }, "geometry": { "type": "LineString", "coordinates": [ [ -78.5199751, 35.9851458 ], [ -78.5198032, 35.9849703 ], [ -78.5196422, 35.9848228 ], [ -78.519471, 35.9846746 ] ] } },
{ "type": "Feature", "properties": { "len_mi": 0.013822868961816283, "name": "Stadium Drive" }, "geometry": { "type": "LineString", "coordinates": [ [ -78.519471, 35.9846746 ], [ -78.5192919, 35.9845368 ] ] } },
{ "type": "Feature", "properties": { "len_mi": 0.0062218800490248432, "name": "Stadium Drive" }, "geometry": { "type": "LineString", "coordinates": [ [ -78.5232783, 35.9880406 ], [ -78.523189, 35.987987 ] ] } },
{ "type": "Feature", "properties": { "len_mi": 0.027641160011247546, "name": "Stadium Drive" }, "geometry": { "type": "LineString", "coordinates": [ [ -78.5212546, 35.9864604 ], [ -78.5215642, 35.9867724 ] ] } },
{ "type": "Feature", "properties": { "len_mi": 0.003995765244693983, "name": "Stadium Drive" }, "geometry": { "type": "LineString", "coordinates": [ [ -78.514971, 35.9829126 ], [ -78.514909, 35.982884 ] ] } },
{ "type": "Feature", "properties": { "len_mi": 0.031933850066370825, "name": "Stadium Drive" }, "geometry": { "type": "LineString", "coordinates": [ [ -78.5232783, 35.9880406 ], [ -78.523667, 35.988274 ], [ -78.5237359, 35.9883165 ] ] } },
{ "type": "Feature", "properties": { "len_mi": 0.0083538896755761156, "name": "Stadium Drive" }, "geometry": { "type": "LineString", "coordinates": [ [ -78.5206619, 35.9858513 ], [ -78.5205718, 35.9857548 ] ] } },
{ "type": "Feature", "properties": { "len_mi": 0.053686837374507343, "name": "Stadium Drive" }, "geometry": { "type": "LineString", "coordinates": [ [ -78.5199751, 35.9851458 ], [ -78.5202191, 35.9853948 ], [ -78.5205718, 35.9857548 ] ] } },
{ "type": "Feature", "properties": { "len_mi": 0.02389481772483425, "name": "Forestville Road" }, "geometry": { "type": "LineString", "coordinates": [ [ -78.5072485, 35.9372917 ], [ -78.5073184, 35.9376335 ] ] } },
{ "type": "Feature", "properties": { "len_mi": 0.010105893892734402, "name": "Forestville Road" }, "geometry": { "type": "LineString", "coordinates": [ [ -78.5072485, 35.9372917 ], [ -78.5072164, 35.9371475 ] ] } },
{ "type": "Feature", "properties": { "len_mi": 0.093186802954464007, "name": "Forestville Road" }, "geometry": { "type": "LineString", "coordinates": [ [ -78.5075207, 35.9392986 ], [ -78.5075266, 35.9390942 ], [ -78.507528, 35.939047 ], [ -78.507501, 35.938696 ], [ -78.507431, 35.938273 ], [ -78.5073779, 35.9379548 ] ] } },
{ "type": "Feature", "properties": { "len_mi": 0.0064302791743486749, "name": "Forestville Road" }, "geometry": { "type": "LineString", "coordinates": [ [ -78.507197, 35.9370556 ], [ -78.5072164, 35.9371475 ] ] } },
{ "type": "Feature", "properties": { "len_mi": 0.024819372456218861, "name": "Forestville Road" }, "geometry": { "type": "LineString", "coordinates": [ [ -78.507121340381161, 35.936700998995761 ], [ -78.5071462, 35.9368143 ], [ -78.507197, 35.9370556 ] ] } },
{ "type": "Feature", "properties": { "len_mi": 0.022408286160502812, "name": "Forestville Road" }, "geometry": { "type": "LineString", "coordinates": [ [ -78.5073184, 35.9376335 ], [ -78.5073371, 35.9377248 ], [ -78.5073779, 35.9379548 ] ] } },
{ "type": "Feature", "properties": { "len_mi": 0.11458609646451738, "name": "Heritage Lake Road" }, "geometry": { "type": "LineString", "coordinates": [ [ -78.5007133, 35.954917 ], [ -78.5005982, 35.9545925 ], [ -78.5005182, 35.9542931 ], [ -78.5004584, 35.9539272 ], [ -78.5004425, 35.953668 ], [ -78.5004624, 35.9532795 ] ] } },
{ "type": "Feature", "properties": { "len_mi": 0.068886403232478521, "name": "Heritage Lake Road" }, "geometry": { "type": "LineString", "coordinates": [ [ -78.5007133, 35.954917 ], [ -78.5007193, 35.9549338 ], [ -78.5011561, 35.9558487 ] ] } },
{ "type": "Feature", "properties": { "len_mi": 0.0069736775315133734, "name": "Heritage Lake Road" }, "geometry": { "type": "LineString", "coordinates": [ [ -78.4986361, 35.9618361 ], [ -78.4987104, 35.961755 ] ] } },
{ "type": "Feature", "properties": { "len_mi": 0.18090110012088978, "name": "Heritage Lake Road" }, "geometry": { "type": "LineString", "coordinates": [ [ -78.4979015, 35.9643403 ], [ -78.4978995, 35.9638895 ], [ -78.497899, 35.9637898 ], [ -78.4979114, 35.9636376 ], [ -78.4979299, 35.9634104 ], [ -78.4979872, 35.9631035 ], [ -78.498077, 35.9627967 ], [ -78.4982132, 35.9624791 ], [ -78.4983825, 35.9621789 ], [ -78.4984535, 35.9620769 ], [ -78.4986361, 35.9618361 ] ] } },
{ "type": "Feature", "properties": { "len_mi": 0.006268670725800095, "name": "Heritage Lake Road" }, "geometry": { "type": "LineString", "coordinates": [ [ -78.4979018, 35.9645379 ], [ -78.497902, 35.964447 ] ] } },
{ "type": "Feature", "properties": { "len_mi": 0.1573676312319871, "name": "Heritage Lake Road" }, "geometry": { "type": "LineString", "coordinates": [ [ -78.5011561, 35.9558487 ], [ -78.5013854, 35.9563627 ], [ -78.5014917, 35.9567471 ], [ -78.5015776, 35.9572473 ], [ -78.5015968, 35.957456 ], [ -78.5016009, 35.9576709 ], [ -78.5015753, 35.9580823 ] ] } },
{ "type": "Feature", "properties": { "len_mi": 0.00735831617062242, "name": "Heritage Lake Road" }, "geometry": { "type": "LineString", "coordinates": [ [ -78.4979015, 35.9643403 ], [ -78.497902, 35.964447 ] ] } },
{ "type": "Feature", "properties": { "len_mi": 0.0067196439799667683, "name": "Heritage Lake Road" }, "geometry": { "type": "LineString", "coordinates": [ [ -78.4987809, 35.9616762 ], [ -78.4987104, 35.961755 ] ] } },
{ "type": "Feature", "properties": { "len_mi": 0.25909481588443789, "name": "Heritage Lake Road" }, "geometry": { "type": "LineString", "coordinates": [ [ -78.4987809, 35.9616762 ], [ -78.4988613, 35.9615873 ], [ -78.4989966, 35.9614622 ], [ -78.4997868, 35.9608514 ], [ -78.5002871, 35.9604385 ], [ -78.5005713, 35.9601483 ], [ -78.5008791, 35.9597779 ], [ -78.5012257, 35.9591718 ], [ -78.5014189, 35.9587294 ], [ -78.501437, 35.958673 ] ] } },
{ "type": "Feature", "properties": { "len_mi": 0.12803526067161419, "name": "Heritage Lake Road" }, "geometry": { "type": "LineString", "coordinates": [ [ -78.5006415, 35.9514295 ], [ -78.5005476, 35.9522241 ], [ -78.5004789, 35.9527869 ], [ -78.5004624, 35.9532795 ] ] } },
{ "type": "Feature", "properties": { "len_mi": 0.0057283765029189949, "name": "Heritage Lake Road" }, "geometry": { "type": "LineString", "coordinates": [ [ -78.501437, 35.958673 ], [ -78.5014607, 35.9585922 ] ] } },
{ "type": "Feature", "properties": { "len_mi": 0.035745926985633433, "name": "Heritage Lake Road" }, "geometry": { "type": "LineString", "coordinates": [ [ -78.5015753, 35.9580823 ], [ -78.5014607, 35.9585922 ] ] } },
{ "type": "Feature", "properties": { "len_mi": 0.024227721848383486, "name": "Ligon Mill Road" }, "geometry": { "type": "LineString", "coordinates": [ [ -78.532523, 35.9413199 ], [ -78.532337, 35.941637 ] ] } },
{ "type": "Feature", "properties": { "len_mi": 0.019007016229155269, "name": "Ligon Mill Road" }, "geometry": { "type": "LineString", "coordinates": [ [ -78.5321909, 35.9418857 ], [ -78.532337, 35.941637 ] ] } },
{ "type": "Feature", "properties": { "len_mi": 0.14696413494449082, "name": "Ligon Mill Road" }, "geometry": { "type": "LineString", "coordinates": [ [ -78.533192977365601, 35.936861502190837 ], [ -78.5332334, 35.9369409 ], [ -78.5332491, 35.9369717 ], [ -78.5332548, 35.9369828 ], [ -78.533615, 35.937704 ], [ -78.533795, 35.938096 ], [ -78.533883, 35.938427 ], [ -78.533892, 35.938655 ], [ -78.53388, 35.938891 ] ] } },
{ "type": "Feature", "properties": { "len_mi": 0.10112371645534558, "name": "Ligon Mill Road" }, "geometry": { "type": "LineString", "coordinates": [ [ -78.530948, 35.943874 ], [ -78.5317738, 35.9425704 ] ] } },
{ "type": "Feature", "properties": { "len_mi": 0.052697674369012855, "name": "Ligon Mill Road" }, "geometry": { "type": "LineString", "coordinates": [ [ -78.5321909, 35.9418857 ], [ -78.532008, 35.942197 ], [ -78.5317738, 35.9425704 ] ] } },
{ "type": "Feature", "properties": { "len_mi": 0.098967941377809898, "name": "Ligon Mill Road" }, "geometry": { "type": "LineString", "coordinates": [ [ -78.5337318, 35.9393147 ], [ -78.53364, 35.93949 ], [ -78.5334878, 35.9397227 ], [ -78.5333296, 35.9399865 ], [ -78.5329596, 35.9406047 ] ] } },
{ "type": "Feature", "properties": { "len_mi": 0.030457475117284319, "name": "Ligon Mill Road" }, "geometry": { "type": "LineString", "coordinates": [ [ -78.5337318, 35.9393147 ], [ -78.5337629, 35.9392462 ], [ -78.533821, 35.939118 ], [ -78.53388, 35.938891 ] ] } },
{ "type": "Feature", "properties": { "len_mi": 0.055067819676066283, "name": "Ligon Mill Road" }, "geometry": { "type": "LineString", "coordinates": [ [ -78.532523, 35.9413199 ], [ -78.532683, 35.941047 ], [ -78.5329596, 35.9406047 ] ] } },
{ "type": "Feature", "properties": { "len_mi": 0.0068113356160177732, "name": "Rogers Road" }, "geometry": { "type": "LineString", "coordinates": [ [ -78.4940845, 35.9429524 ], [ -78.4941955, 35.9429925 ] ] } },
{ "type": "Feature", "properties": { "len_mi": 0.0031118315881292239, "name": "Rogers Road" }, "geometry": { "type": "LineString", "coordinates": [ [ -78.4922644, 35.9422575 ], [ -78.4923145, 35.9422769 ] ] } },
{ "type": "Feature", "properties": { "len_mi": 0.069049621140632553, "name": "Rogers Road" }, "geometry": { "type": "LineString", "coordinates": [ [ -78.491144909272037, 35.941840618436778 ], [ -78.4915168, 35.9419788 ], [ -78.4922644, 35.9422575 ] ] } },
{ "type": "Feature", "properties": { "len_mi": 0.10965335222717247, "name": "Rogers Road" }, "geometry": { "type": "LineString", "coordinates": [ [ -78.4940845, 35.9429524 ], [ -78.4937835, 35.9428436 ], [ -78.4932722, 35.9426498 ], [ -78.4929628, 35.9425312 ], [ -78.4926938, 35.9424257 ], [ -78.4923145, 35.9422769 ] ] } }
]
}
